      2.10          N: GNSS NAV DATA                        RINEX VERSION / TYPE
fic2rin                                 03/07/2019 00:19:05 PGM / RUN BY / DATE
                                                            END OF HEADER
29 19  3  6  8  0  0.0 2.558319829404e-04-8.753886504564e-12 0.000000000000e+00
    4.000000000000e+01 9.387500000000e+01 3.812658812543e-09 1.261402117410e+00
    4.917383193970e-06 7.693741936237e-04 8.728355169296e-06 5.153560178757e+03
    2.880000000000e+05-4.656612873077e-08-2.465696186189e+00-3.725290298462e-09
    9.854627276553e-01 2.221250000000e+02 1.447084365375e+00-7.773538084778e-09
    4.464471677451e-10 1.000000000000e+00 2.043000000000e+03 0.000000000000e+00
    2.400000000000e+00 0.000000000000e+00-1.024454832077e-08 4.000000000000e+01
    2.808000000000e+05 4.000000000000e+00
28 19  3  6  8  0  0.0 7.658293470740e-04 6.821210263297e-13 0.000000000000e+00
    4.000000000000e+01-3.190625000000e+01 3.835874065266e-09 1.259636708834e+00
   -1.817941665649e-06 1.920917863026e-02 1.129880547523e-05 5.153702724457e+03
    2.880000000000e+05-1.322478055954e-07 2.796590863086e+00-4.861503839493e-07
    9.832273376281e-01 1.748125000000e+02-1.471475939371e+00-7.803539334450e-09
   -3.810873023872e-10 1.000000000000e+00 2.043000000000e+03 0.000000000000e+00
    2.400000000000e+00 0.000000000000e+00-1.117587089539e-08 4.000000000000e+01
    2.808000000000e+05 4.000000000000e+00
30 19  3  6  8  0  0.0-6.363121792674e-05-6.593836587854e-12 0.000000000000e+00
    8.200000000000e+01-4.000000000000e+00 5.372723795512e-09-2.345579154307e+00
   -2.775341272354e-07 3.715836675838e-03 3.835186362267e-06 5.153608936310e+03
    2.880000000000e+05-3.166496753693e-08 1.704482724079e+00-1.862645149231e-09
    9.411625034017e-01 2.963437500000e+02-3.022818172350e+00-8.535355531818e-09
   -2.714398779890e-11 1.000000000000e+00 2.043000000000e+03 0.000000000000e+00
    2.400000000000e+00 0.000000000000e+00 3.725290298462e-09 8.200000000000e+01
    2.808000000000e+05 4.000000000000e+00
21 19  3  6  8  0  0.0-2.379058860242e-04 7.275957614183e-12 0.000000000000e+00
    9.400000000000e+01 1.309375000000e+01 5.183073038654e-09 2.763347635538e+00
    5.345791578293e-07 2.478763577528e-02 8.698552846909e-07 5.153783405304e+03
    2.880000000000e+05 4.433095455170e-07-1.538562379596e+00-1.247972249985e-07
    9.470513001909e-01 3.528125000000e+02-1.468494390903e+00-8.313917736616e-09
   -3.357282701443e-11 1.000000000000e+00 2.043000000000e+03 0.000000000000e+00
    2.400000000000e+00 0.000000000000e+00-1.024454832077e-08 9.400000000000e+01
    2.808000000000e+05 4.000000000000e+00
19 19  3  6  8  0  0.0-3.454275429249e-04 4.206412995700e-12 0.000000000000e+00
    5.800000000000e+01 1.038437500000e+02 3.964808007311e-09-3.100784053451e+00
    5.168840289116e-06 9.420900256373e-03 8.970499038696e-06 5.153629829407e+03
    2.880000000000e+05 1.732259988785e-07-2.430302439806e+00-1.005828380585e-07
    9.817761887247e-01 2.145937500000e+02 1.353201196799e+00-7.704963799812e-09
    4.700195782020e-10 1.000000000000e+00 2.043000000000e+03 0.000000000000e+00
    2.400000000000e+00 0.000000000000e+00-1.536682248116e-08 5.800000000000e+01
    2.808000000000e+05 4.000000000000e+00
32 19  3  6  8  0  0.0-1.948936842382e-04 1.875832822407e-11 0.000000000000e+00
    6.400000000000e+01 4.621875000000e+01 4.548046587253e-09 1.149444979249e+00
    2.473592758179e-06 2.676926087588e-03 1.025572419167e-05 5.153765514374e+03
    2.880000000000e+05-3.725290298462e-08 6.046603137520e-01 4.842877388000e-08
    9.571132990164e-01 1.810000000000e+02-2.600757881536e+00-8.042120700893e-09
    3.507288949806e-10 1.000000000000e+00 2.043000000000e+03 0.000000000000e+00
    2.400000000000e+00 0.000000000000e+00 4.656612873077e-10 6.400000000000e+01
    2.808000000000e+05 4.000000000000e+00
18 19  3  6  8  0  0.0 3.217952325940e-05 3.524291969370e-12 0.000000000000e+00
    8.600000000000e+01 1.312500000000e+00 5.134142429069e-09-1.980424635904e+00
    3.054738044739e-07 1.507957139984e-02 1.138076186180e-06 5.153723052979e+03
    2.880000000000e+05 2.328306436539e-07-1.529868626106e+00 7.636845111847e-08
    9.527390774068e-01 3.501250000000e+02 1.377997127203e+00-8.462495354042e-09
    1.389343586023e-10 1.000000000000e+00 2.043000000000e+03 0.000000000000e+00
    2.400000000000e+00 0.000000000000e+00-6.053596735001e-09 8.600000000000e+01
    2.808000000000e+05 4.000000000000e+00
20 19  3  6  8  0  0.0 5.228295922279e-04 3.410605131648e-13 0.000000000000e+00
    5.500000000000e+01-9.962500000000e+01 5.190573351072e-09-2.071471753456e+00
   -5.085021257401e-06 4.385848878883e-03 8.128583431244e-06 5.153682523727e+03
    2.880000000000e+05-1.117587089539e-07-5.526229864170e-01 8.009374141693e-08
    9.303750610557e-01 2.080312500000e+02 2.301440942379e+00-8.399992750558e-09
   -3.596578383355e-10 1.000000000000e+00 2.043000000000e+03 0.000000000000e+00
    2.400000000000e+00 0.000000000000e+00-8.381903171539e-09 5.500000000000e+01
    2.808000000000e+05 4.000000000000e+00
 4 19  3  6  8  0  0.0 1.279362477362e-04 7.730704965070e-12 0.000000000000e+00
    2.390000000000e+02 3.725000000000e+01 4.413755279195e-09-2.561809592395e+00
    1.886859536171e-06 3.428737400100e-04 1.032091677189e-05 5.153571310043e+03
    2.880000000000e+05 1.490116119385e-08 6.429148417895e-01 2.793967723846e-08
    9.601720105611e-01 1.783437500000e+02-1.488475711617e+00-7.926758752748e-09
    4.500187450871e-10 1.000000000000e+00 2.043000000000e+03 0.000000000000e+00
    2.400000000000e+00 6.300000000000e+01-8.847564458847e-09 7.510000000000e+02
    2.808600000000e+05 4.000000000000e+00
21 19  3  6  7 59 44.0-2.379068173468e-04 7.275957614183e-12 0.000000000000e+00
    9.000000000000e+00 1.309375000000e+01 5.183073038654e-09 2.761014093948e+00
    5.345791578293e-07 2.478763239924e-02 8.698552846909e-07 5.153783407211e+03
    2.879840000000e+05 4.433095455170e-07-1.538562239156e+00-1.247972249985e-07
    9.470512972650e-01 3.528125000000e+02-1.468494490381e+00-8.313917736616e-09
   -3.321566928024e-11 1.000000000000e+00 2.043000000000e+03 0.000000000000e+00
    2.400000000000e+00 0.000000000000e+00-1.024454832077e-08 9.000000000000e+00
    2.842200000000e+05 4.000000000000e+00
 6 19  3  6  7 59 44.0 2.615507692099e-04-8.640199666843e-12 0.000000000000e+00
    0.000000000000e+00 4.968750000000e+00 4.777699010341e-09-1.538073377284e+00
    3.091990947723e-07 1.596088870429e-03 2.138316631317e-06 5.153534952164e+03
    2.879840000000e+05-7.823109626770e-08-1.484796308800e+00 3.539025783539e-08
    9.738983178141e-01 3.477812500000e+02-1.174757884421e+00-8.410707482584e-09
    5.535944880039e-11 1.000000000000e+00 2.043000000000e+03 0.000000000000e+00
    2.400000000000e+00 0.000000000000e+00 4.656612873077e-09 0.000000000000e+00
    2.862900000000e+05 4.000000000000e+00
 6 19  3  6  9 59 44.0 2.614883705974e-04-8.640199666843e-12 0.000000000000e+00
    1.000000000000e+00 1.968750000000e+00 4.736625870908e-09-4.880416412590e-01
   -1.210719347000e-07 1.595870940946e-03 1.976266503334e-06 5.153534132004e+03
    2.951840000000e+05-3.911554813385e-08-1.484857255430e+00-1.303851604462e-08
    9.738987318199e-01 3.485937500000e+02-1.174521750425e+00-8.448566202408e-09
    8.500354073867e-11 1.000000000000e+00 2.043000000000e+03 0.000000000000e+00
    2.400000000000e+00 0.000000000000e+00 4.656612873077e-09 1.000000000000e+00
    2.880000000000e+05 4.000000000000e+00
21 19  3  6  9 59 44.0-2.378541976213e-04 7.275957614183e-12 0.000000000000e+00
    1.000000000000e+01 1.590625000000e+01 5.039495629507e-09-2.472060634699e+00
    1.003965735435e-06 2.478788897861e-02 5.252659320831e-07 5.153782855988e+03
    2.951840000000e+05 2.402812242508e-07-1.538623629050e+00 2.477318048477e-07
    9.470525480600e-01 3.531562500000e+02-1.468485821129e+00-8.242486189777e-09
    2.842975564201e-10 1.000000000000e+00 2.043000000000e+03 0.000000000000e+00
    2.400000000000e+00 0.000000000000e+00-1.024454832077e-08 1.000000000000e+01
    2.880000000000e+05 4.000000000000e+00
 2 19  3  6 10  0  0.0-1.564556732774e-04-9.777068044059e-12 0.000000000000e+00
    4.800000000000e+01 1.528125000000e+01 5.323436028193e-09-3.932155634637e-01
    8.251518011093e-07 1.892117306124e-02 2.495944499969e-06 5.153656492233e+03
    2.952000000000e+05-2.197921276093e-07-1.543629851751e+00 1.806765794754e-07
    9.533420234819e-01 3.342187500000e+02-1.764384421053e+00-9.013589737907e-09
    2.046513816944e-10 1.000000000000e+00 2.043000000000e+03 0.000000000000e+00
    2.400000000000e+00 0.000000000000e+00-2.048909664154e-08 4.800000000000e+01
    2.880000000000e+05 4.000000000000e+00
 1 19  3  6 10  0  0.0-1.754043623805e-04-7.389644451905e-12 0.000000000000e+00
    6.000000000000e+01-8.250000000000e+00 4.736268713174e-09-6.940568939812e-01
   -2.700835466385e-07 8.453129907139e-03 1.989305019379e-06 5.153652120590e+03
    2.952000000000e+05 9.126961231232e-08-1.476568857523e+00 8.754432201385e-08
    9.742345739233e-01 3.480000000000e+02 6.841037757596e-01-8.489996499575e-09
    3.785871982478e-11 1.000000000000e+00 2.043000000000e+03 0.000000000000e+00
    2.400000000000e+00 0.000000000000e+00 5.587935447693e-09 6.000000000000e+01
    2.880000000000e+05 4.000000000000e+00
 7 19  3  6 10  0  0.0 2.025300636888e-05-7.275957614183e-12 0.000000000000e+00
    1.800000000000e+01-4.875000000000e+00 5.018066165455e-09-1.308699031333e+00
   -2.942979335785e-07 1.227830967400e-02 3.738328814507e-06 5.153595136642e+03
    2.952000000000e+05 3.073364496231e-07 1.675007086974e+00-9.313225746155e-08
    9.556734555440e-01 3.030625000000e+02-2.475998681432e+00-8.333561411997e-09
   -1.096474243982e-10 1.000000000000e+00 2.043000000000e+03 0.000000000000e+00
    2.400000000000e+00 0.000000000000e+00-1.117587089539e-08 1.800000000000e+01
    2.880000000000e+05 4.000000000000e+00
